{"type": "FeatureCollection", "features": [ {"type": "Feature", "properties": {"norad_id": 34833, "name": "IRIDIUM 33 DEB", "group": "iridium-33-debris", "lat": 36.20839137640179, "lon": 51.915104350649834, "alt_km": 705.384716007472, "timestamp": "2025-12-16T17:51:11.317499+00:00", "meta": {"OBJECT_NAME": "IRIDIUM 33 DEB", "OBJECT_ID": "1997-051MH", "EPOCH": "2025-12-15T10:20:22.808256", "MEAN_MOTION": 14.52396502, "ECCENTRICITY": 0.00217393, "INCLINATION": 86.3936, "RA_OF_ASC_NODE": 49.8343, "ARG_OF_PERICENTER": 90.4638, "MEAN_ANOMALY": 284.9984, "EPHEMERIS_TYPE": 0, "CLASSIFICATION_TYPE": "U", "NORAD_CAT_ID": 34833, "ELEMENT_SET_NO": 999, "REV_AT_EPOCH": 87754, "BSTAR": 0.00054738094, "MEAN_MOTION_DOT": 2.256e-05, "MEAN_MOTION_DDOT": 0}, "tle": {"line1": "1 34833U 97051MH  25349.43081954  .00002256  00000+0  54738-3 0  9994", "line2": "2 34833  86.3936  49.8343 0021739  90.4638 284.9984 14.52396502877543"}}, "geometry": {"type": "Point", "coordinates": [51.915104350649834, 36.20839137640179]}}, {"type": "Feature", "properties": {"norad_id": 34870, "name": "IRIDIUM 33 DEB", "group": "iridium-33-debris", "lat": -4.841301505005367, "lon": -48.06327906931502, "alt_km": 655.6904589669466, "timestamp": "2025-12-16T17:51:11.317509+00:00", "meta": {"OBJECT_NAME": "IRIDIUM 33 DEB", "OBJECT_ID": "1997-051MQ", "EPOCH": "2025-12-15T20:52:07.322880", "MEAN_MOTION": 14.7649675, "ECCENTRICITY": 0.00166647, "INCLINATION": 86.3098, "RA_OF_ASC_NODE": 312.6504, "ARG_OF_PERICENTER": 171.0618, "MEAN_ANOMALY": 219.7465, "EPHEMERIS_TYPE": 0, "CLASSIFICATION_TYPE": "U", "NORAD_CAT_ID": 34870, "ELEMENT_SET_NO": 999, "REV_AT_EPOCH": 88957, "BSTAR": 0.0009319058, "MEAN_MOTION_DOT": 6.529e-05, "MEAN_MOTION_DDOT": 0}, "tle": {"line1": "1 34870U 97051MQ  25349.86952920  .00006529  00000+0  93191-3 0  9995", "line2": "2 34870  86.3098 312.6504 0016664 171.0618 219.7465 14.76496750889576"}}, "geometry": {"type": "Point", "coordinates": [-48.06327906931502, -4.841301505005367]}}, {"type": "Feature", "properties": {"norad_id": 34896, "name": "IRIDIUM 33 DEB", "group": "iridium-33-debris", "lat": 49.59913938240099, "lon": -30.783886436090842, "alt_km": 683.4882683397209, "timestamp": "2025-12-16T17:51:11.317520+00:00", "meta": {"OBJECT_NAME": "IRIDIUM 33 DEB", "OBJECT_ID": "1997-051MY", "EPOCH": "2025-12-15T05:52:43.272192", "MEAN_MOTION": 14.66306707, "ECCENTRICITY": 0.00245889, "INCLINATION": 86.3284, "RA_OF_ASC_NODE": 325.5614, "ARG_OF_PERICENTER": 205.2361, "MEAN_ANOMALY": 217.3935, "EPHEMERIS_TYPE": 0, "CLASSIFICATION_TYPE": "U", "NORAD_CAT_ID": 34896, "ELEMENT_SET_NO": 999, "REV_AT_EPOCH": 87656, "BSTAR": 0.00064086297, "MEAN_MOTION_DOT": 3.573e-05, "MEAN_MOTION_DDOT": 0}, "tle": {"line1": "1 34896U 97051MY  25349.24494528  .00003573  00000+0  64086-3 0  9997", "line2": "2 34896  86.3284 325.5614 0024588 205.2361 217.3935 14.66306707876567"}}, "geometry": {"type": "Point", "coordinates": [-30.783886436090842, 49.59913938240099]}}, {"type": "Feature", "properties": {"norad_id": 34926, "name": "IRIDIUM 33 DEB", "group": "iridium-33-debris", "lat": -32.40215498196634, "lon": 3.957920269790189, "alt_km": 681.6018565995773, "timestamp": "2025-12-16T17:51:11.317531+00:00", "meta": {"OBJECT_NAME": "IRIDIUM 33 DEB", "OBJECT_ID": "1997-051NF", "EPOCH": "2025-12-15T19:43:01.131168", "MEAN_MOTION": 14.54563676, "ECCENTRICITY": 0.00748103, "INCLINATION": 86.1336, "RA_OF_ASC_NODE": 6.8454, "ARG_OF_PERICENTER": 282.1125, "MEAN_ANOMALY": 258.1546, "EPHEMERIS_TYPE": 0, "CLASSIFICATION_TYPE": "U", "NORAD_CAT_ID": 34926, "ELEMENT_SET_NO": 999, "REV_AT_EPOCH": 86501, "BSTAR": 0.0034895207, "MEAN_MOTION_DOT": 0.00015491, "MEAN_MOTION_DDOT": 0}, "tle": {"line1": "1 34926U 97051NF  25349.82154087  .00015491  00000+0  34895-2 0  9994", "line2": "2 34926  86.1336   6.8454 0074810 282.1125 258.1546 14.54563676865019"}}, "geometry": {"type": "Point", "coordinates": [3.957920269790189, -32.40215498196634]}}, {"type": "Feature", "properties": {"norad_id": 34985, "name": "IRIDIUM 33 DEB", "group": "iridium-33-debris", "lat": -85.73748617244732, "lon": -3.2339449041727817, "alt_km": 753.1429579824835, "timestamp": "2025-12-16T17:51:11.317542+00:00", "meta": {"OBJECT_NAME": "IRIDIUM 33 DEB", "OBJECT_ID": "1997-051NR", "EPOCH": "2025-12-15T23:04:55.240608", "MEAN_MOTION": 14.42024534, "ECCENTRICITY": 0.00210591, "INCLINATION": 86.3698, "RA_OF_ASC_NODE": 55.5052, "ARG_OF_PERICENTER": 208.7794, "MEAN_ANOMALY": 325.5524, "EPHEMERIS_TYPE": 0, "CLASSIFICATION_TYPE": "U", "NORAD_CAT_ID": 34985, "ELEMENT_SET_NO": 999, "REV_AT_EPOCH": 87221, "BSTAR": 0.00049841253, "MEAN_MOTION_DOT": 1.659e-05, "MEAN_MOTION_DDOT": 0}, "tle": {"line1": "1 34985U 97051NR  25349.96175047  .00001659  00000+0  49841-3 0  9992", "line2": "2 34985  86.3698  55.5052 0021059 208.7794 325.5524 14.42024534872212"}}, "geometry": {"type": "Point", "coordinates": [-3.2339449041727817, -85.73748617244732]}}, {"type": "Feature", "properties": {"norad_id": 35051, "name": "IRIDIUM 33 DEB", "group": "iridium-33-debris", "lat": -74.37475208337749, "lon": -6.170500493271095, "alt_km": 747.4848984669816, "timestamp": "2025-12-16T17:51:11.317553+00:00", "meta": {"OBJECT_NAME": "IRIDIUM 33 DEB", "OBJECT_ID": "1997-051NX", "EPOCH": "2025-12-11T08:47:57.045408", "MEAN_MOTION": 14.47588957, "ECCENTRICITY": 0.00106566, "INCLINATION": 86.3243, "RA_OF_ASC_NODE": 9.4603, "ARG_OF_PERICENTER": 94.8899, "MEAN_ANOMALY": 265.3522, "EPHEMERIS_TYPE": 0, "CLASSIFICATION_TYPE": "U", "NORAD_CAT_ID": 35051, "ELEMENT_SET_NO": 999, "REV_AT_EPOCH": 86976, "BSTAR": 0.001042299, "MEAN_MOTION_DOT": 3.858e-05, "MEAN_MOTION_DDOT": 0}, "tle": {"line1": "1 35051U 97051NX  25345.36663247  .00003858  00000+0  10423-2 0  9997", "line2": "2 35051  86.3243   9.4603 0010656  94.8899 265.3522 14.47588957869768"}}, "geometry": {"type": "Point", "coordinates": [-6.170500493271095, -74.37475208337749]}}, {"type": "Feature", "properties": {"norad_id": 35052, "name": "IRIDIUM 33 DEB", "group": "iridium-33-debris", "lat": -56.827958857014444, "lon": 13.126273911512826, "alt_km": 776.919897745036, "timestamp": "2025-12-16T17:51:11.317564+00:00", "meta": {"OBJECT_NAME": "IRIDIUM 33 DEB", "OBJECT_ID": "1997-051NY", "EPOCH": "2025-12-15T20:24:53.339040", "MEAN_MOTION": 14.38495733, "ECCENTRICITY": 0.00135883, "INCLINATION": 86.3308, "RA_OF_ASC_NODE": 19.1426, "ARG_OF_PERICENTER": 76.4171, "MEAN_ANOMALY": 283.8539, "EPHEMERIS_TYPE": 0, "CLASSIFICATION_TYPE": "U", "NORAD_CAT_ID": 35052, "ELEMENT_SET_NO": 999, "REV_AT_EPOCH": 87320, "BSTAR": 0.00017238116, "MEAN_MOTION_DOT": 5.47e-06, "MEAN_MOTION_DDOT": 0}, "tle": {"line1": "1 35052U 97051NY  25349.85061735  .00000547  00000+0  17238-3 0  9994", "line2": "2 35052  86.3308  19.1426 0013588  76.4171 283.8539 14.38495733873204"}}, "geometry": {"type": "Point", "coordinates": [13.126273911512826, -56.827958857014444]}}, {"type": "Feature", "properties": {"norad_id": 35080, "name": "IRIDIUM 33 DEB", "group": "iridium-33-debris", "lat": 84.58117190112841, "lon": 94.82992199171433, "alt_km": 593.637594129752, "timestamp": "2025-12-16T17:51:11.317574+00:00", "meta": {"OBJECT_NAME": "IRIDIUM 33 DEB", "OBJECT_ID": "1997-051PF", "EPOCH": "2025-12-15T22:04:39.139680", "MEAN_MOTION": 14.86464911, "ECCENTRICITY": 0.00597118, "INCLINATION": 86.2076, "RA_OF_ASC_NODE": 50.8561, "ARG_OF_PERICENTER": 168.7581, "MEAN_ANOMALY": 191.4994, "EPHEMERIS_TYPE": 0, "CLASSIFICATION_TYPE": "U", "NORAD_CAT_ID": 35080, "ELEMENT_SET_NO": 999, "REV_AT_EPOCH": 69735, "BSTAR": 0.00478109, "MEAN_MOTION_DOT": 0.00043877, "MEAN_MOTION_DDOT": 0}, "tle": {"line1": "1 35080U 97051PF  25349.91989745  .00043877  00000+0  47811-2 0  9994", "line2": "2 35080  86.2076  50.8561 0059711 168.7581 191.4994 14.86464911697352"}}, "geometry": {"type": "Point", "coordinates": [94.82992199171433, 84.58117190112841]}}, {"type": "Feature", "properties": {"norad_id": 35297, "name": "IRIDIUM 33 DEB", "group": "iridium-33-debris", "lat": -53.74554168415482, "lon": 56.108762408548436, "alt_km": 761.082765428906, "timestamp": "2025-12-16T17:51:11.317585+00:00", "meta": {"OBJECT_NAME": "IRIDIUM 33 DEB", "OBJECT_ID": "1997-051PM", "EPOCH": "2025-12-14T12:55:35.277600", "MEAN_MOTION": 14.45168041, "ECCENTRICITY": 0.00176283, "INCLINATION": 86.3867, "RA_OF_ASC_NODE": 61.9926, "ARG_OF_PERICENTER": 135.2135, "MEAN_ANOMALY": 225.0494, "EPHEMERIS_TYPE": 0, "CLASSIFICATION_TYPE": "U", "NORAD_CAT_ID": 35297, "ELEMENT_SET_NO": 999, "REV_AT_EPOCH": 70452, "BSTAR": 0.0006336217, "MEAN_MOTION_DOT": 2.241e-05, "MEAN_MOTION_DDOT": 0}, "tle": {"line1": "1 35297U 97051PM  25348.53860275  .00002241  00000+0  63362-3 0  9997", "line2": "2 35297  86.3867  61.9926 0017628 135.2135 225.0494 14.45168041704521"}}, "geometry": {"type": "Point", "coordinates": [56.108762408548436, -53.74554168415482]}}, {"type": "Feature", "properties": {"norad_id": 35299, "name": "IRIDIUM 33 DEB", "group": "iridium-33-debris", "lat": 2.0227971572389816, "lon": -148.6878850417971, "alt_km": 756.8657078442375, "timestamp": "2025-12-16T17:51:11.317595+00:00", "meta": {"OBJECT_NAME": "IRIDIUM 33 DEB", "OBJECT_ID": "1997-051PP", "EPOCH": "2025-12-15T21:50:14.877024", "MEAN_MOTION": 14.40877819, "ECCENTRICITY": 0.00589889, "INCLINATION": 86.2887, "RA_OF_ASC_NODE": 31.8064, "ARG_OF_PERICENTER": 92.3249, "MEAN_ANOMALY": 81.5744, "EPHEMERIS_TYPE": 0, "CLASSIFICATION_TYPE": "U", "NORAD_CAT_ID": 35299, "ELEMENT_SET_NO": 999, "REV_AT_EPOCH": 86376, "BSTAR": 0.00055865127, "MEAN_MOTION_DOT": 1.848e-05, "MEAN_MOTION_DDOT": 0}, "tle": {"line1": "1 35299U 97051PP  25349.90989441  .00001848  00000+0  55865-3 0  9999", "line2": "2 35299  86.2887  31.8064 0058988  92.3249  81.5744 14.40877819863766"}}, "geometry": {"type": "Point", "coordinates": [-148.6878850417971, 2.0227971572389816]}}]}